FENGYUN 1C DEB          
1 33719U 99025DHG 17345.87263983  .00000361  00000-0  21011-3 0  9992
2 33719  99.0255 359.9525 0036199 130.4439 351.2174 14.14635219506173
